STARLINK-11433 [DTC]    
1 62008U 24213A   24352.76305452 -.00002036  00000+0 -84491-5 0  9999
2 62008  53.1583  87.1521 0001254  68.3321 291.7833 15.76717698  5883
STARLINK-11262 [DTC]    
1 62009U 24213B   24352.75379843  .00002440  00000+0  18905-4 0  9997
2 62009  53.1535  87.8251 0001432 105.3629 254.7551 15.76723725  4679
STARLINK-11326 [DTC]    
1 62010U 24213C   24352.70454248  .00008096  00000+0  53375-4 0  9990
2 62010  53.1556  87.4980 0000850 113.4613 246.6498 15.76745328  4678
STARLINK-11330 [DTC]    
1 62011U 24213D   24352.98739167 -.00001440  00000+0 -48064-5 0  9995
2 62011  53.1547  86.4297 0001124 120.4102 239.7030 15.76724364  5656
STARLINK-11363 [DTC]    
1 62012U 24213E   24352.59728861  .00034711  00000+0  21446-3 0  9990
2 62012  53.1554  88.2587 0003324   3.3902 356.7141 15.76803786  5668
STARLINK-11377 [DTC]    
1 62013U 24213F   24352.91667824 -.00944044  00000+0 -53530-2 0  9997
2 62013  53.1626  86.3153 0001379  62.5314 130.6085 15.80774364  5940
STARLINK-11385 [DTC]    
1 62014U 24213G   24352.99268934  .00003772  00000+0  27028-4 0  9992
2 62014  53.1534  86.4640 0000935 110.8174 249.2947 15.76733169  5711
STARLINK-11396 [DTC]    
1 62015U 24213H   24352.75817400 -.00003389  00000+0 -16734-4 0  9993
2 62015  53.1573  87.1173 0000936  54.8771 305.2338 15.76711688  5523
STARLINK-11393 [DTC]    
1 62016U 24213J   24352.96783990  .00015522  00000+0  98470-4 0  9990
2 62016  53.1540  86.2983 0000975  44.4723 315.6376 15.76772756  5656
STARLINK-11343 [DTC]    
1 62017U 24213K   24352.68063858  .00000157  00000+0  49542-5 0  9999
2 62017  53.1544  88.0747 0001202  89.2870 270.8289 15.76732183  4668
STARLINK-11411 [DTC]    
1 62018U 24213L   24352.74890213  .00018996  00000+0  11960-3 0  9991
2 62018  53.1544  87.7920 0001100 115.2206 244.8929 15.76766431  5877
STARLINK-11404 [DTC]    
1 62019U 24213M   24352.97274320  .00005306  00000+0  36393-4 0  9991
2 62019  53.1569  86.3331 0001353  90.2832 269.8344 15.76730223  5714
STARLINK-11378 [DTC]    
1 62020U 24213N   24352.70942671  .00008227  00000+0  54173-4 0  9996
2 62020  53.1561  87.5300 0001088  93.1537 266.9608 15.76744863  5611
STARLINK-32520          
1 62021U 24213P   24352.97936587  .00000594  00000+0  18732-4 0  9995
2 62021  53.1606  89.2913 0001237  89.8044 270.3107 15.49317466  5889
STARLINK-32539          
1 62022U 24213Q   24353.16667824 -.00323236  00000+0 -15694-2 0  9998
2 62022  53.1563  84.2801 0000873  66.2042 123.5098 15.82535853  5578
STARLINK-32334          
1 62023U 24213R   24352.65545540  .00000145  00000+0  10675-4 0  9997
2 62023  53.1601  90.8245 0001498  81.6089 278.5089 15.49309709  5813
STARLINK-32504          
1 62024U 24213S   24352.91667824 -.00076639  00000+0 -19219-2 0  9991
2 62024  53.1597  89.9354 0001269  96.5929 102.0970 15.39673218  5955
STARLINK-32493          
1 62025U 24213T   24351.88220620 -.00100103  00000+0 -18382-2 0  9990
2 62025  53.1607  94.5322 0000490 161.2812 198.8215 15.48948472  5728
STARLINK-32561          
1 62026U 24213U   24352.85022254 -.00117343  00000+0 -22059-2 0  9992
2 62026  53.1609  89.9091 0000377 134.7008 225.4032 15.48362337  5878
STARLINK-32512          
1 62027U 24213V   24352.71961554  .00002245  00000+0  48415-4 0  9991
2 62027  53.1614  90.5119 0001199  96.7827 263.3319 15.49309929  4634
GSAT-N2 (GSAT-20)       
1 62028U 24214A   24353.11072051 -.00000013  00000+0  00000+0 0  9998
2 62028   0.0375 295.6576 0002432 345.3216 273.9548  1.00270833   417
FALCON 9 R/B            
1 62029U 24214B   24352.57838824  .00003143  00000+0  13674-2 0  9996
2 62029  27.7068 164.1206 8172473 186.3418 144.3322  1.26554482   370
PROGRESS-MS 29          
1 62030U 24215A   24352.89062328  .00017936  00000+0  31349-3 0  9997
2 62030  51.6382 125.2238 0007734 352.3431   7.7439 15.50696186  3092
STARLINK-32637          
1 62032U 24216A   24352.91667824 -.00190237  00000+0 -46469-2 0  9991
2 62032  42.9993 281.7486 0001999 256.7241 335.8930 15.40789813  5262
STARLINK-32582          
1 62033U 24216B   24352.99258987  .00003507  00000+0  65562-4 0  9994
2 62033  42.9983 281.1444 0001903 249.7168 110.3488 15.50584076  5219
STARLINK-32615          
1 62034U 24216C   24352.86376595 -.00169518  00000+0 -30179-2 0  9998
2 62034  42.9979 281.8993 0001238 193.5167 166.5660 15.49908503  5204
STARLINK-32592          
1 62035U 24216D   24352.86307684  .00005690  00000+0  10270-3 0  9991
2 62035  42.9966 281.8965 0001103 279.8116  80.2620 15.50587760  5289
STARLINK-32225          
1 62036U 24216E   24352.91667824 -.01525905  00000+0 -36351-1 0  9998
2 62036  42.9993 281.6404 0001229 259.1611  17.5481 15.43904815  5426
STARLINK-32595          
1 62037U 24216F   24352.99121926  .00002138  00000+0  42261-4 0  9990
2 62037  42.9986 281.1386 0001660 271.6869  88.3801 15.50580670  5313
STARLINK-32477          
1 62038U 24216G   24353.16667824 -.00135493  00000+0 -32890-2 0  9991
2 62038  42.9991 280.3980 0002112 242.1113 261.4891 15.40744694  5252
STARLINK-32480          
1 62039U 24216H   24352.86170337  .00003223  00000+0  60724-4 0  9998
2 62039  42.9992 281.8844 0001057 274.9991  85.0748 15.50583979  4127
STARLINK-32510          
1 62040U 24216J   24352.86136085  .00003578  00000+0  66769-4 0  9990
2 62040  42.9992 281.8812 0000956 262.1005  97.9746 15.50585493  5287
STARLINK-32456          
1 62041U 24216K   24352.91667824 -.01525790  00000+0 -34645-1 0  9990
2 62041  42.9993 281.5932 0001427 254.2504  41.3184 15.45298660  5166
STARLINK-32509          
1 62042U 24216L   24352.91667824  .00043548  00000+0  10452-2 0  9995
2 62042  42.9993 281.6864 0001337 266.7773 350.7190 15.40659546  5318
STARLINK-32491          
1 62043U 24216M   24352.98916118  .00001956  00000+0  39152-4 0  9993
2 62043  42.9983 281.1178 0001448 257.8649 102.2049 15.50582398  5119
STARLINK-32577          
1 62044U 24216N   24352.85998857  .00003345  00000+0  62797-4 0  9995
2 62044  42.9985 281.8690 0000942 254.4202 105.6554 15.50585165  5296
STARLINK-32618          
1 62045U 24216P   24352.92435208 -.00093405  00000+0 -16313-2 0  9999
2 62045  42.9948 281.4896 0002124 257.7118 102.3504 15.50127049  5108
STARLINK-32598          
1 62046U 24216Q   24353.25001157  .00050972  00000+0  12203-2 0  9993
2 62046  42.9992 279.7352 0001271 262.1081  58.8480 15.40676184  5269
STARLINK-32630          
1 62047U 24216R   24352.53688575  .00002324  00000+0  45425-4 0  9991
2 62047  42.9991 283.7473 0001528 270.2855  89.7830 15.50583782  5233
STARLINK-32599          
1 62048U 24216S   24352.85861710  .00002277  00000+0  44624-4 0  9998
2 62048  42.9983 281.8577 0001349 269.5306  90.5400 15.50582695  5282
STARLINK-32473          
1 62049U 24216T   24353.11777570 -.00383303  00000+0 -74499-2 0  9994
2 62049  42.9976 280.3622 0000899 230.7016 129.3764 15.48224480  4169
STARLINK-32492          
1 62050U 24216U   24353.11559179  .00001334  00000+0  28564-4 0  9992
2 62050  42.9974 280.3469 0001515 265.8875  94.1812 15.50578972  4171
STARLINK-32496          
1 62051U 24216V   24353.11517785 -.00070277  00000+0 -11959-2 0  9992
2 62051  42.9988 280.3422 0002623 246.0703 113.9882 15.50737330  4169
STARLINK-32495          
1 62052U 24216W   24352.91667824 -.01526228  00000+0 -35610-1 0  9992
2 62052  42.9992 281.5524 0001342 263.5281  48.1508 15.44511317  5100
STARLINK-32494          
1 62053U 24216X   24353.11456272  .00000077  00000+0  71259-5 0  9998
2 62053  42.9989 280.3375 0001363 244.0857 115.9863 15.50578238  4168
STARLINK-32408          
1 62054U 24216Y   24352.91667824  .00007219  00000+0  17979-3 0  9995
2 62054  42.9992 281.7136 0001502 268.3167 336.7148 15.40720168  5363
STARLINK-32571          
1 62055U 24216Z   24353.16667824 -.00140558  00000+0 -34122-2 0  9998
2 62055  42.9993 280.1535 0001372 268.4137 334.6362 15.40767027  5432
STARLINK-11465 [DTC]    
1 62057U 24217A   24352.92631890  .00025757  00000+0  16053-3 0  9993
2 62057  53.1574 115.9033 0000880 112.4823 247.6291 15.76780128  4972
STARLINK-11426 [DTC]    
1 62058U 24217B   24353.04821817  .00030215  00000+0  18778-3 0  9999
2 62058  53.1548 115.2387 0000901 111.2487 248.8630 15.76749141  4932
STARLINK-11454 [DTC]    
1 62059U 24217C   24352.91656503  .00029689  00000+0  18463-3 0  9997
2 62059  53.1543 115.8384 0000826  97.7554 262.3560 15.76744344  4977
STARLINK-11473 [DTC]    
1 62060U 24217D   24352.84829388  .00073884  00000+0  45044-3 0  9995
2 62060  53.1572 116.1230 0001266  73.3208 286.7952 15.76782158  4969
STARLINK-11429 [DTC]    
1 62061U 24217E   24352.84341751  .00014342  00000+0  91493-4 0  9993
2 62061  53.1562 116.0907 0000823  99.4455 260.6659 15.76724080  4954
STARLINK-11470 [DTC]    
1 62062U 24217F   24353.16667824  .00138120  00000+0  83699-3 0  9991
2 62062  53.1602 114.0859 0000747  73.6376 156.5941 15.76654562  4959
STARLINK-11427 [DTC]    
1 62063U 24217G   24352.83852688  .00010303  00000+0  66813-4 0  9991
2 62063  53.1579 116.0582 0000793 117.2637 242.8465 15.76747027  4953
STARLINK-11456 [DTC]    
1 62064U 24217H   24351.91667824 -.00161630  00000+0 -99640-3 0  9991
2 62064  53.1562 120.5947 0001273  85.3487 106.8585 15.76862858  4810
STARLINK-11474 [DTC]    
1 62065U 24217J   24352.91667824 -.00038063  00000+0 -22969-3 0  9996
2 62065  53.1558 115.5567 0001149  71.9752  67.4597 15.76719686  4990
STARLINK-11463 [DTC]    
1 62066U 24217K   24353.16667824  .00071017  00000+0  43520-3 0  9995
2 62066  53.1570 114.2540 0000812  76.0879  70.9426 15.76680826  5011
STARLINK-11472 [DTC]    
1 62067U 24217L   24352.91667824  .00044271  00000+0  27371-3 0  9996
2 62067  53.1565 115.4436 0000736   5.9661 188.9518 15.76676243  4949
STARLINK-11467 [DTC]    
1 62068U 24217M   24353.16667824  .00053606  00000+0  33015-3 0  9999
2 62068  53.1596 114.1402 0000749  65.3070 137.2063 15.76681261  5018
STARLINK-11460 [DTC]    
1 62069U 24217N   24352.50002315 -.01113137  00000+0 -64168-2 0  9996
2 62069  53.1616 117.3698 0001117  55.7144   5.6312 15.80427251  4891
